STARLINK-37933          
1 69532U 26133AA  26193.25002315 -.00018078  00000+0 -50833-3 0  9996
2 69532  53.1584 198.5016 0001374 100.2998 246.7277 15.35413894  5909
STARLINK-37890          
1 69533U 26133AB  26193.05066091  .00013744  00000+0  41710-3 0  9993
2 69533  53.1554 199.3557 0001825 106.3184 253.8019 15.34403888  5949
STARLINK-37407          
1 69534U 26133AC  26193.25002315 -.00021441  00000+0 -64219-3 0  9999
2 69534  53.1584 198.2794 0001269  89.5554   4.5114 15.33560531  5955
STARLINK-37888          
1 69535U 26133AD  26193.25002315 -.00021266  00000+0 -62000-3 0  9991
2 69535  53.1581 198.3289 0001515  67.4958   0.9930 15.34400387  5904
STARLINK-37889          
1 69536U 26133AE  26192.43076950  .00030076  00000+0  54606-3 0  9997
2 69536  53.1560 202.6291 0001859  94.3949 265.7273 15.49343632  5843
2026-134A               
1 69538U 26134A   26193.11595867  .00002743  00000+0  17507-3 0  9998
2 69538  97.7008 263.3181 0015837 180.8362 179.2843 15.09445240  4079
2026-134B               
1 69539U 26134B   26193.04687927  .00002694  00000+0  17132-3 0  9999
2 69539  97.6983 263.2469 0015932 183.4737 176.6384 15.09601386  4054
2026-134C               
1 69540U 26134C   26193.17888082  .00002672  00000+0  16979-3 0  9994
2 69540  97.6989 263.3828 0015398 184.1212 175.9892 15.09634418  4074
2026-134D               
1 69541U 26134D   26193.17785390  .00002643  00000+0  16769-3 0  9998
2 69541  97.7027 263.3973 0016445 184.0819 176.0279 15.09692052  4075
2026-134E               
1 69542U 26134E   26193.17746168  .00002638  00000+0  16728-3 0  9998
2 69542  97.7045 263.4041 0016153 184.7172 175.3907 15.09713698  4078
2026-134F               
1 69543U 26134F   26193.04408765  .00002592  00000+0  16431-3 0  9993
2 69543  97.6998 263.2563 0015438 186.7755 173.3267 15.09758191  4058
2026-134G               
1 69544U 26134G   26193.30768693  .00002641  00000+0  16690-3 0  9994
2 69544  97.7042 263.5394 0015918 186.8330 173.2685 15.09844235  4090
2026-134H               
1 69545U 26134H   26193.04141602  .00002657  00000+0  16762-3 0  9998
2 69545  97.7027 263.2697 0015733 189.0269 171.0680 15.09909850  4049
STARLINK-37880          
1 69546U 26135A   26193.25002315 -.00018961  00000+0 -34759-3 0  9993
2 69546  97.2846 221.5163 0000425 116.7930 351.9637 15.49207282  5331
STARLINK-37881          
1 69547U 26135B   26193.25002315 -.02490065  00000+0 -42230-1 0  9996
2 69547  97.2848 221.6078 0001627 108.8167 205.2965 15.55342391  5332
STARLINK-37265          
1 69548U 26135C   26193.25002315 -.02530097  00000+0 -30846-1 0  9997
2 69548  97.2844 221.6635 0001416  59.1644  27.8991 15.64016095  5338
STARLINK-37871          
1 69549U 26135D   26193.25002315 -.00922769  00000+0 -16284-1 0  9997
2 69549  97.2841 221.5996 0001471  89.7388 202.0033 15.53099447  5334
STARLINK-37865          
1 69550U 26135E   26193.25002315 -.02135578  00000+0 -36991-1 0  9992
2 69550  97.2849 221.6111 0001375  91.9498 226.6252 15.54192469  5338
STARLINK-37862          
1 69551U 26135F   26193.25002315 -.00996342  00000+0 -12416-1 0  9991
2 69551  97.2840 221.6512 0001481  79.9083 331.9771 15.62553136  5336
STARLINK-37861          
1 69552U 26135G   26193.25002315 -.02453582  00000+0 -39754-1 0  9992
2 69552  97.2839 221.6332 0001274  82.1663 289.3963 15.56512375  5337
STARLINK-37859          
1 69553U 26135H   26193.25002315 -.02731760  00000+0 -40235-1 0  9996
2 69553  97.2842 221.6375 0001650  82.5786 312.9032 15.58827780  5338
STARLINK-37860          
1 69554U 26135J   26193.25002315 -.02556320  00000+0 -33905-1 0  9990
2 69554  97.2840 221.6718 0001377  60.0916  44.3026 15.61917137  5339
STARLINK-37858          
1 69555U 26135K   26193.25002315 -.02543075  00000+0 -35030-1 0  9995
2 69555  97.2839 221.6587 0001721  42.0733  39.0749 15.60918633  5336
STARLINK-37927          
1 69556U 26135L   26193.25002315 -.02445973  00000+0 -42876-1 0  9990
2 69556  97.2842 221.6303 0001237 106.4323 258.5490 15.54377331  5337
STARLINK-37929          
1 69557U 26135M   26193.25002315 -.00017584  00000+0 -32254-3 0  9993
2 69557  97.2845 221.5878 0001634  86.8394 190.5195 15.49174112  5330
STARLINK-37954          
1 69558U 26135N   26193.25002315 -.00014565  00000+0 -26679-3 0  9994
2 69558  97.2846 221.5926 0000909  76.2123 207.9703 15.49172181  5335
STARLINK-37958          
1 69559U 26135P   26190.35553351  .00052572  00000+0  27487-3 0  9990
2 69559  97.2842 218.6737 0001420 185.9739 174.1513 15.80710505  3761
STARLINK-37950          
1 69560U 26135Q   26193.25002315 -.02602334  00000+0 -36195-1 0  9998
2 69560  97.2842 221.6718 0001831  56.0451  52.0153 15.60761726  5339
STARLINK-37952          
1 69561U 26135R   26193.25002315 -.02460034  00000+0 -43657-1 0  9999
2 69561  97.2838 221.6425 0001253  99.2272 294.0548 15.54065478  5338
STARLINK-37935          
1 69562U 26135S   26193.25002315 -.00017529  00000+0 -32142-3 0  9994
2 69562  97.2846 221.5944 0001712  85.6660 208.1165 15.49182763  5335
