OBJECT_NAME,OBJECT_ID,EPOCH,MEAN_MOTION,ECCENTRICITY,INCLINATION,RA_OF_ASC_NODE,ARG_OF_PERICENTER,MEAN_ANOMALY,EPHEMERIS_TYPE,CLASSIFICATION_TYPE,NORAD_CAT_ID,ELEMENT_SET_NO,REV_AT_EPOCH,BSTAR,MEAN_MOTION_DOT,MEAN_MOTION_DDOT
STARLINK-37933,2026-133AA,2026-07-12T06:00:02.000160,15.35413894,.00013749,53.1584,198.5016,100.2998,246.7277,0,U,69532,999,590,-.50833114E-3,-.18078E-3,0
STARLINK-37890,2026-133AB,2026-07-12T01:12:57.102624,15.34403888,.00018256,53.1554,199.3557,106.3184,253.8019,0,U,69533,999,594,.41710297E-3,.13744E-3,0
STARLINK-37407,2026-133AC,2026-07-12T06:00:02.000160,15.33560531,.00012693,53.1584,198.2794,89.5554,4.5114,0,U,69534,999,595,-.64219499E-3,-.21441E-3,0
STARLINK-37888,2026-133AD,2026-07-12T06:00:02.000160,15.34400387,.00015152,53.1581,198.3289,67.4958,0.9930,0,U,69535,999,590,-.61999798E-3,-.21266E-3,0
STARLINK-37889,2026-133AE,2026-07-11T10:20:18.484800,15.49343632,.0001859,53.1560,202.6291,94.3949,265.7273,0,U,69536,999,584,.54605988E-3,.30076E-3,0
2026-134A,2026-134A,2026-07-12T02:46:58.829088,15.09445240,.00158371,97.7008,263.3181,180.8362,179.2843,0,U,69538,999,407,.17507023E-3,.2743E-4,0
2026-134B,2026-134B,2026-07-12T01:07:30.368928,15.09601386,.00159328,97.6983,263.2469,183.4737,176.6384,0,U,69539,999,405,.17131509E-3,.2694E-4,0
2026-134C,2026-134C,2026-07-12T04:17:35.302848,15.09634418,.00153983,97.6989,263.3828,184.1212,175.9892,0,U,69540,999,407,.16979145E-3,.2672E-4,0
2026-134D,2026-134D,2026-07-12T04:16:06.576960,15.09692052,.00164456,97.7027,263.3973,184.0819,176.0279,0,U,69541,999,407,.16769118E-3,.2643E-4,0
2026-134E,2026-134E,2026-07-12T04:15:32.689152,15.09713698,.00161538,97.7045,263.4041,184.7172,175.3907,0,U,69542,999,407,.16727935E-3,.2638E-4,0
2026-134F,2026-134F,2026-07-12T01:03:29.172960,15.09758191,.00154383,97.6998,263.2563,186.7755,173.3267,0,U,69543,999,405,.16430823E-3,.2592E-4,0
2026-134G,2026-134G,2026-07-12T07:23:04.150752,15.09844235,.0015918,97.7042,263.5394,186.8330,173.2685,0,U,69544,999,409,.16690287E-3,.2641E-4,0
2026-134H,2026-134H,2026-07-12T00:59:38.344128,15.09909850,.00157335,97.7027,263.2697,189.0269,171.0680,0,U,69545,999,404,.16761621E-3,.2657E-4,0
STARLINK-37880,2026-135A,2026-07-12T06:00:02.000160,15.49207282,.00004251,97.2846,221.5163,116.7930,351.9637,0,U,69546,999,533,-.34758818E-3,-.18961E-3,0
STARLINK-37881,2026-135B,2026-07-12T06:00:02.000160,15.55342391,.00016279,97.2848,221.6078,108.8167,205.2965,0,U,69547,999,533,-.4222955E-1,-.2490065E-1,0
STARLINK-37265,2026-135C,2026-07-12T06:00:02.000160,15.64016095,.00014169,97.2844,221.6635,59.1644,27.8991,0,U,69548,999,533,-.30845524E-1,-.2530097E-1,0
STARLINK-37871,2026-135D,2026-07-12T06:00:02.000160,15.53099447,.00014711,97.2841,221.5996,89.7388,202.0033,0,U,69549,999,533,-.16284298E-1,-.922769E-2,0
STARLINK-37865,2026-135E,2026-07-12T06:00:02.000160,15.54192469,.0001375,97.2849,221.6111,91.9498,226.6252,0,U,69550,999,533,-.36990791E-1,-.2135578E-1,0
STARLINK-37862,2026-135F,2026-07-12T06:00:02.000160,15.62553136,.00014815,97.2840,221.6512,79.9083,331.9771,0,U,69551,999,533,-.12415609E-1,-.996342E-2,0
STARLINK-37861,2026-135G,2026-07-12T06:00:02.000160,15.56512375,.00012745,97.2839,221.6332,82.1663,289.3963,0,U,69552,999,533,-.39754492E-1,-.2453582E-1,0
STARLINK-37859,2026-135H,2026-07-12T06:00:02.000160,15.58827780,.000165,97.2842,221.6375,82.5786,312.9032,0,U,69553,999,533,-.4023531E-1,-.273176E-1,0
STARLINK-37860,2026-135J,2026-07-12T06:00:02.000160,15.61917137,.00013776,97.2840,221.6718,60.0916,44.3026,0,U,69554,999,533,-.33904748E-1,-.255632E-1,0
STARLINK-37858,2026-135K,2026-07-12T06:00:02.000160,15.60918633,.00017215,97.2839,221.6587,42.0733,39.0749,0,U,69555,999,533,-.35030173E-1,-.2543075E-1,0
STARLINK-37927,2026-135L,2026-07-12T06:00:02.000160,15.54377331,.00012372,97.2842,221.6303,106.4323,258.5490,0,U,69556,999,533,-.42875976E-1,-.2445973E-1,0
STARLINK-37929,2026-135M,2026-07-12T06:00:02.000160,15.49174112,.00016346,97.2845,221.5878,86.8394,190.5195,0,U,69557,999,533,-.32253525E-3,-.17584E-3,0
STARLINK-37954,2026-135N,2026-07-12T06:00:02.000160,15.49172181,.00009096,97.2846,221.5926,76.2123,207.9703,0,U,69558,999,533,-.26678888E-3,-.14565E-3,0
STARLINK-37958,2026-135P,2026-07-09T08:31:58.095264,15.80710505,.00014208,97.2842,218.6737,185.9739,174.1513,0,U,69559,999,376,.27486559E-3,.52572E-3,0
STARLINK-37950,2026-135Q,2026-07-12T06:00:02.000160,15.60761726,.00018312,97.2842,221.6718,56.0451,52.0153,0,U,69560,999,533,-.36194688E-1,-.2602334E-1,0
STARLINK-37952,2026-135R,2026-07-12T06:00:02.000160,15.54065478,.00012532,97.2838,221.6425,99.2272,294.0548,0,U,69561,999,533,-.43656941E-1,-.2460034E-1,0
STARLINK-37935,2026-135S,2026-07-12T06:00:02.000160,15.49182763,.00017127,97.2846,221.5944,85.6660,208.1165,0,U,69562,999,533,-.32141854E-3,-.17529E-3,0
